STARLINK-1321_new
1 15573C 20025AU  21326.16143980  .00005479  00000-0  36702-3 0  3269
2 15573  53.0543 278.0204 0001845  63.5415 264.7402 15.06397501    14
STARLINK-1321_old
1 25573C 20025AU  21325.12736414  .00003117  00000-0  20886-3 0  3256
2 25573  53.0544 282.6622 0001808  61.7240  55.6414 15.06387552    10
